0 FENGYUN 1C DEB
1 29929U 99025JB  13281.47457649  .00001102  00000-0  88312-3 0  1505
2 29929 098.5459 098.3093 0152482 226.0344 151.4636 13.87402272340625
0 FENGYUN 1C DEB
1 29929U 99025JB  13283.08241373  .00001143  00000-0  91479-3 0  1513
2 29929 098.5457 099.7816 0152501 221.6179 262.0574 13.87409803340841
0 FENGYUN 1C DEB
1 29929U 99025JB  13285.73872981  .00001302  00000-0  10379-2 0  1530
2 29929 098.5456 102.2138 0152565 214.3377 209.5116 13.87414523341211
0 FENGYUN 1C DEB
1 29929U 99025JB  13287.04934976  .00001474  00000-0  11709-2 0  1548
2 29929 098.5455 103.4138 0152587 210.7374 275.6694 13.87417931341394
0 FENGYUN 1C DEB
1 29929U 99025JB  13288.47749913  .00001809  00000-0  14297-2 0  1559
2 29929 098.5455 104.7214 0152583 206.8190 208.8636 13.87424443341593
0 FENGYUN 1C DEB
1 29929U 99025JB  13289.77832331  .00001459  00000-0  11589-2 0  1563
2 29929 098.5457 105.9124 0152605 203.2471 226.1306 13.87430626341773
0 FENGYUN 1C DEB
1 29929U 99025JB  13291.42664603  .00001436  00000-0  11405-2 0  1576
2 29929 098.5460 107.4215 0152596 198.7400 179.0819 13.87435244342007
0 FENGYUN 1C DEB
1 29929U 99025JB  13292.43889100  .00001615  00000-0  12792-2 0  1589
2 29929 098.5461 108.3482 0152607 195.9661 195.0134 13.87437566342147
0 FENGYUN 1C DEB
1 29929U 99025JB  13293.45321699  .00001814  00000-0  14323-2 0  1590
2 29929 098.5461 109.2769 0152608 193.1901 221.3460 13.87440552342282
0 FENGYUN 1C DEB
1 29929U 99025JB  13294.46290683  .00001993  00000-0  15709-2 0  1609
2 29929 098.5461 110.2014 0152634 190.4187 224.5394 13.87443947342420
0 FENGYUN 1C DEB
1 29929U 99025JB  13295.47265956  .00001925  00000-0  15177-2 0  1611
2 29929 098.5462 111.1259 0152601 187.6538 228.0474 13.87448688342564
